{"type": "FeatureCollection", "features": [ {"type": "Feature", "properties": {"norad_id": 47009, "name": "FENGYUN 1C DEB", "group": "fengyun-1c-debris", "lat": -45.520026836186496, "lon": 142.25548802046518, "alt_km": 896.5240045683586, "timestamp": "2025-12-13T18:50:04.722065+00:00", "meta": {"OBJECT_NAME": "FENGYUN 1C DEB", "OBJECT_ID": "1999-025FAK", "EPOCH": "2025-12-02T05:09:31.123584", "MEAN_MOTION": 13.37303446, "ECCENTRICITY": 0.0352227, "INCLINATION": 98.9376, "RA_OF_ASC_NODE": 321.2954, "ARG_OF_PERICENTER": 285.6992, "MEAN_ANOMALY": 70.555, "EPHEMERIS_TYPE": 0, "CLASSIFICATION_TYPE": "U", "NORAD_CAT_ID": 47009, "ELEMENT_SET_NO": 999, "REV_AT_EPOCH": 58668, "BSTAR": 0.00057132, "MEAN_MOTION_DOT": 3.87e-06, "MEAN_MOTION_DDOT": 0}, "tle": {"line1": "1 47009U 99025FAK 25336.21494356  .00000387  00000+0  57132-3 0  9996", "line2": "2 47009  98.9376 321.2954 0352227 285.6992  70.5550 13.37303446586681"}}, "geometry": {"type": "Point", "coordinates": [142.25548802046518, -45.520026836186496]}}, {"type": "Feature", "properties": {"norad_id": 47012, "name": "FENGYUN 1C DEB", "group": "fengyun-1c-debris", "lat": 51.51346501499807, "lon": -144.99311558865148, "alt_km": 847.2080110545585, "timestamp": "2025-12-13T18:50:04.722076+00:00", "meta": {"OBJECT_NAME": "FENGYUN 1C DEB", "OBJECT_ID": "1999-025FAN", "EPOCH": "2025-12-05T22:22:36.481152", "MEAN_MOTION": 13.77908149, "ECCENTRICITY": 0.01638485, "INCLINATION": 98.755, "RA_OF_ASC_NODE": 218.9381, "ARG_OF_PERICENTER": 81.7177, "MEAN_ANOMALY": 280.2518, "EPHEMERIS_TYPE": 0, "CLASSIFICATION_TYPE": "U", "NORAD_CAT_ID": 47012, "ELEMENT_SET_NO": 999, "REV_AT_EPOCH": 54479, "BSTAR": 0.00065808903, "MEAN_MOTION_DOT": 6.91e-06, "MEAN_MOTION_DDOT": 0}, "tle": {"line1": "1 47012U 99025FAN 25339.93236668  .00000691  00000+0  65809-3 0  9990", "line2": "2 47012  98.7550 218.9381 0163848  81.7177 280.2518 13.77908149544797"}}, "geometry": {"type": "Point", "coordinates": [-144.99311558865148, 51.51346501499807]}}, {"type": "Feature", "properties": {"norad_id": 47013, "name": "FENGYUN 1C DEB", "group": "fengyun-1c-debris", "lat": 9.55192162962701, "lon": 56.13188092702842, "alt_km": 843.7863090080309, "timestamp": "2025-12-13T18:50:04.722087+00:00", "meta": {"OBJECT_NAME": "FENGYUN 1C DEB", "OBJECT_ID": "1999-025FAP", "EPOCH": "2025-11-16T11:10:59.954016", "MEAN_MOTION": 14.24672933, "ECCENTRICITY": 0.00559466, "INCLINATION": 98.0819, "RA_OF_ASC_NODE": 32.3431, "ARG_OF_PERICENTER": 238.0397, "MEAN_ANOMALY": 121.5338, "EPHEMERIS_TYPE": 0, "CLASSIFICATION_TYPE": "U", "NORAD_CAT_ID": 47013, "ELEMENT_SET_NO": 999, "REV_AT_EPOCH": 72885, "BSTAR": 0.0028202138, "MEAN_MOTION_DOT": 6.632e-05, "MEAN_MOTION_DDOT": 0}, "tle": {"line1": "1 47013U 99025FAP 25320.46597169  .00006632  00000+0  28202-2 0  9991", "line2": "2 47013  98.0819  32.3431 0055946 238.0397 121.5338 14.24672933728853"}}, "geometry": {"type": "Point", "coordinates": [56.13188092702842, 9.55192162962701]}}, {"type": "Feature", "properties": {"norad_id": 47015, "name": "FENGYUN 1C DEB", "group": "fengyun-1c-debris", "lat": 71.86566768928431, "lon": 16.685177925568613, "alt_km": 498.05929690918947, "timestamp": "2025-12-13T18:50:04.722097+00:00", "meta": {"OBJECT_NAME": "FENGYUN 1C DEB", "OBJECT_ID": "1999-025FAR", "EPOCH": "2025-12-12T10:12:55.009152", "MEAN_MOTION": 14.87360406, "ECCENTRICITY": 0.01758364, "INCLINATION": 98.7107, "RA_OF_ASC_NODE": 43.1065, "ARG_OF_PERICENTER": 113.6048, "MEAN_ANOMALY": 248.3739, "EPHEMERIS_TYPE": 0, "CLASSIFICATION_TYPE": "U", "NORAD_CAT_ID": 47015, "ELEMENT_SET_NO": 999, "REV_AT_EPOCH": 64377, "BSTAR": 0.0010891837, "MEAN_MOTION_DOT": 0.00013037, "MEAN_MOTION_DDOT": 0}, "tle": {"line1": "1 47015U 99025FAR 25346.42563668  .00013037  00000+0  10892-2 0  9997", "line2": "2 47015  98.7107  43.1065 0175836 113.6048 248.3739 14.87360406643775"}}, "geometry": {"type": "Point", "coordinates": [16.685177925568613, 71.86566768928431]}}, {"type": "Feature", "properties": {"norad_id": 47025, "name": "FENGYUN 1C DEB", "group": "fengyun-1c-debris", "lat": -79.52774164976464, "lon": -45.01283250055434, "alt_km": 744.7518269045004, "timestamp": "2025-12-13T18:50:04.722108+00:00", "meta": {"OBJECT_NAME": "FENGYUN 1C DEB", "OBJECT_ID": "1999-025FBB", "EPOCH": "2025-12-12T20:06:42.672960", "MEAN_MOTION": 14.46294633, "ECCENTRICITY": 0.00406614, "INCLINATION": 99.0341, "RA_OF_ASC_NODE": 193.379, "ARG_OF_PERICENTER": 357.1981, "MEAN_ANOMALY": 21.1535, "EPHEMERIS_TYPE": 0, "CLASSIFICATION_TYPE": "U", "NORAD_CAT_ID": 47025, "ELEMENT_SET_NO": 999, "REV_AT_EPOCH": 62743, "BSTAR": 0.0029634524, "MEAN_MOTION_DOT": 0.00010696, "MEAN_MOTION_DDOT": 0}, "tle": {"line1": "1 47025U 99025FBB 25346.83799390  .00010696  00000+0  29635-2 0  9999", "line2": "2 47025  99.0341 193.3790 0040661 357.1981  21.1535 14.46294633627430"}}, "geometry": {"type": "Point", "coordinates": [-45.01283250055434, -79.52774164976464]}}, {"type": "Feature", "properties": {"norad_id": 47036, "name": "FENGYUN 1C DEB", "group": "fengyun-1c-debris", "lat": -49.146150510293225, "lon": 41.40034450773179, "alt_km": 888.8980201800932, "timestamp": "2025-12-13T18:50:04.722118+00:00", "meta": {"OBJECT_NAME": "FENGYUN 1C DEB", "OBJECT_ID": "1999-025FBN", "EPOCH": "2025-12-12T23:16:01.155648", "MEAN_MOTION": 14.15176243, "ECCENTRICITY": 0.00687987, "INCLINATION": 98.7226, "RA_OF_ASC_NODE": 30.3778, "ARG_OF_PERICENTER": 97.042, "MEAN_ANOMALY": 22.1454, "EPHEMERIS_TYPE": 0, "CLASSIFICATION_TYPE": "U", "NORAD_CAT_ID": 47036, "ELEMENT_SET_NO": 999, "REV_AT_EPOCH": 59930, "BSTAR": 0.00020924943, "MEAN_MOTION_DOT": 3.73e-06, "MEAN_MOTION_DDOT": 0}, "tle": {"line1": "1 47036U 99025FBN 25346.96945782  .00000373  00000+0  20925-3 0  9998", "line2": "2 47036  98.7226  30.3778 0068798  97.0420  22.1454 14.15176243599302"}}, "geometry": {"type": "Point", "coordinates": [41.40034450773179, -49.146150510293225]}}, {"type": "Feature", "properties": {"norad_id": 47040, "name": "FENGYUN 1C DEB", "group": "fengyun-1c-debris", "lat": 62.23882766057522, "lon": -125.50750576462386, "alt_km": 909.3378064268554, "timestamp": "2025-12-13T18:50:04.722129+00:00", "meta": {"OBJECT_NAME": "FENGYUN 1C DEB", "OBJECT_ID": "1999-025FBS", "EPOCH": "2025-12-10T23:56:36.325824", "MEAN_MOTION": 14.06483958, "ECCENTRICITY": 0.00627252, "INCLINATION": 100.2943, "RA_OF_ASC_NODE": 251.5252, "ARG_OF_PERICENTER": 237.4301, "MEAN_ANOMALY": 122.0795, "EPHEMERIS_TYPE": 0, "CLASSIFICATION_TYPE": "U", "NORAD_CAT_ID": 47040, "ELEMENT_SET_NO": 999, "REV_AT_EPOCH": 89084, "BSTAR": 0.00064394729, "MEAN_MOTION_DOT": 1.028e-05, "MEAN_MOTION_DDOT": 0}, "tle": {"line1": "1 47040U 99025FBS 25344.99764266  .00001028  00000+0  64395-3 0  9997", "line2": "2 47040 100.2943 251.5252 0062725 237.4301 122.0795 14.06483958890843"}}, "geometry": {"type": "Point", "coordinates": [-125.50750576462386, 62.23882766057522]}}, {"type": "Feature", "properties": {"norad_id": 47041, "name": "FENGYUN 1C DEB", "group": "fengyun-1c-debris", "lat": 1.6465040915546103, "lon": 14.139215151732344, "alt_km": 557.5932069794098, "timestamp": "2025-12-13T18:50:04.722140+00:00", "meta": {"OBJECT_NAME": "FENGYUN 1C DEB", "OBJECT_ID": "1999-025FBT", "EPOCH": "2025-12-10T19:53:59.087040", "MEAN_MOTION": 15.06982698, "ECCENTRICITY": 0.00146942, "INCLINATION": 98.256, "RA_OF_ASC_NODE": 11.2097, "ARG_OF_PERICENTER": 191.3996, "MEAN_ANOMALY": 344.1998, "EPHEMERIS_TYPE": 0, "CLASSIFICATION_TYPE": "U", "NORAD_CAT_ID": 47041, "ELEMENT_SET_NO": 999, "REV_AT_EPOCH": 71160, "BSTAR": 0.0030573384, "MEAN_MOTION_DOT": 0.00046063, "MEAN_MOTION_DDOT": 0}, "tle": {"line1": "1 47041U 99025FBT 25344.82915610  .00046063  00000+0  30573-2 0  9999", "line2": "2 47041  98.2560  11.2097 0014694 191.3996 344.1998 15.06982698711607"}}, "geometry": {"type": "Point", "coordinates": [14.139215151732344, 1.6465040915546103]}}, {"type": "Feature", "properties": {"norad_id": 47042, "name": "FENGYUN 1C DEB", "group": "fengyun-1c-debris", "lat": 75.40593453148382, "lon": -152.18677856944615, "alt_km": 781.2541491975435, "timestamp": "2025-12-13T18:50:04.722150+00:00", "meta": {"OBJECT_NAME": "FENGYUN 1C DEB", "OBJECT_ID": "1999-025FBU", "EPOCH": "2025-12-11T22:52:31.155168", "MEAN_MOTION": 14.22834675, "ECCENTRICITY": 0.0055348, "INCLINATION": 99.0007, "RA_OF_ASC_NODE": 243.4409, "ARG_OF_PERICENTER": 36.8325, "MEAN_ANOMALY": 24.4112, "EPHEMERIS_TYPE": 0, "CLASSIFICATION_TYPE": "U", "NORAD_CAT_ID": 47042, "ELEMENT_SET_NO": 999, "REV_AT_EPOCH": 62510, "BSTAR": 0.00041842, "MEAN_MOTION_DOT": 9.08e-06, "MEAN_MOTION_DDOT": 0}, "tle": {"line1": "1 47042U 99025FBU 25345.95313837  .00000908  00000+0  41842-3 0  9998", "line2": "2 47042  99.0007 243.4409 0055348  36.8325  24.4112 14.22834675625102"}}, "geometry": {"type": "Point", "coordinates": [-152.18677856944615, 75.40593453148382]}}, {"type": "Feature", "properties": {"norad_id": 47100, "name": "FENGYUN 1C DEB", "group": "fengyun-1c-debris", "lat": -48.19392557011199, "lon": 177.6192244043138, "alt_km": 678.5106475331713, "timestamp": "2025-12-13T18:50:04.722162+00:00", "meta": {"OBJECT_NAME": "FENGYUN 1C DEB", "OBJECT_ID": "1999-025FBY", "EPOCH": "2025-12-12T23:12:09.676224", "MEAN_MOTION": 14.51431151, "ECCENTRICITY": 0.00893492, "INCLINATION": 99.0206, "RA_OF_ASC_NODE": 166.51, "ARG_OF_PERICENTER": 352.9796, "MEAN_ANOMALY": 7.0138, "EPHEMERIS_TYPE": 0, "CLASSIFICATION_TYPE": "U", "NORAD_CAT_ID": 47100, "ELEMENT_SET_NO": 999, "REV_AT_EPOCH": 26771, "BSTAR": 0.0026155721, "MEAN_MOTION_DOT": 0.00010956, "MEAN_MOTION_DDOT": 0}, "tle": {"line1": "1 47100U 99025FBY 25346.96677866  .00010956  00000+0  26156-2 0  9994", "line2": "2 47100  99.0206 166.5100 0089349 352.9796   7.0138 14.51431151267711"}}, "geometry": {"type": "Point", "coordinates": [177.6192244043138, -48.19392557011199]}}]}